[{"OBJECT_NAME":"PREFIRE-1","OBJECT_ID":"2024-108A","EPOCH":"2026-03-09T22:24:03.177504","MEAN_MOTION":15.22571626,"ECCENTRICITY":0.00108716,"INCLINATION":97.5188,"RA_OF_ASC_NODE":223.5154,"ARG_OF_PERICENTER":223.1698,"MEAN_ANOMALY":136.8686,"EPHEMERIS_TYPE":0,"CLASSIFICATION_TYPE":"U","NORAD_CAT_ID":59965,"ELEMENT_SET_NO":999,"REV_AT_EPOCH":9748,"BSTAR":0.00029745769,"MEAN_MOTION_DOT":6.846e-5,"MEAN_MOTION_DDOT":0},{"OBJECT_NAME":"BANDWAGON-4 OBJECT M","OBJECT_ID":"2025-248M","EPOCH":"2026-03-09T00:50:26.830464","MEAN_MOTION":15.24295413,"ECCENTRICITY":0.00129441,"INCLINATION":45.4108,"RA_OF_ASC_NODE":294.9904,"ARG_OF_PERICENTER":207.5285,"MEAN_ANOMALY":152.4918,"EPHEMERIS_TYPE":0,"CLASSIFICATION_TYPE":"U","NORAD_CAT_ID":66304,"ELEMENT_SET_NO":999,"REV_AT_EPOCH":1803,"BSTAR":0.00095703617,"MEAN_MOTION_DOT":0.00023645,"MEAN_MOTION_DDOT":0}]
